CUBEBUG-2 (LO-74)       
1 39440U 13066AA  26158.75189183  .00005333  00000+0  49259-3 0  9995
2 39440  97.8907 107.6906 0059310  59.6684 301.0383 14.93689124675583
FUNCUBE-1 (AO-73)       
1 39444U 13066AE  26158.44422611  .00006890  00000+0  42956-3 0  9997
2 39444  97.8276 129.6877 0034678 234.9588 124.8385 15.09375076678197
UWE-3                   
1 39446U 13066AG  26157.65461373  .00005074  00000+0  43622-3 0  9993
2 39446  97.8693 113.6587 0049030 356.7161   3.3731 14.96941234676005
UNISAT-6                
1 40012U 14033C   26158.38412225  .00003749  00000+0  40442-3 0  9996
2 40012  97.7873 311.2702 0046464 100.6516 259.9939 14.88194150644707
DUCHIFAT-1              
1 40021U 14033M   26158.67842588  .00098159  00000+0  10840-2 0  9994
2 40021  98.0456 216.5179 0004587 131.8907 228.2741 15.62727135654263
QB50P1                  
1 40025U 14033R   26158.52731635  .00008742  00000+0  43186-3 0  9991
2 40025  98.0971 168.9970 0007105 254.5294 105.5153 15.18113251651562
LILACSAT-2              
1 40908U 15049K   26158.85460367  .00018684  00000+0  32149-3 0  9999
2 40908  97.4658 195.3431 0005273 290.5121  69.5565 15.51138001594307
FOX-1A (AO-85)          
1 40967U 15058D   26158.76074733  .00003179  00000+0  28859-3 0  9998
2 40967  64.7762 308.2774 0129935  60.2802 301.1167 14.90923768112167
CAS-2T & KS-1Q          
1 41847U 16066G   26158.75171188  .00001911  00000+0  27520-3 0  9993
2 41847  98.3822 234.5955 0342430 158.0287 203.5998 14.44663945503435
RADFXSAT (FOX-1B)       
1 43017U 17073E   26158.61620536  .00009816  00000+0  42838-3 0  9995
2 43017  97.4720  26.0272 0150977   2.4483 357.7452 15.12560328463947
DIWATA-2B               
1 43678U 18084H   26158.83345022  .00003338  00000+0  27042-3 0  9992
2 43678  98.1170 354.6367 0012000 200.8942 159.1792 15.00409522414818
ES'HAIL 2               
1 43700U 18090A   26158.70720123  .00000159  00000+0  00000+0 0  9999
2 43700   0.0135  47.6791 0001915  65.0280  63.7974  1.00273798 27581
FOX-1CLIFF (AO-95)      
1 43770U 18099N   26158.70453595  .00012109  00000+0  46571-3 0  9996
2 43770  97.4384 218.9879 0009051  31.2567 328.9208 15.26512239411779
ITASAT                  
1 43786U 18099AE  26158.66744811  .00007393  00000+0  35627-3 0  9991
2 43786  97.4031 210.3699 0013145  33.2018 327.0039 15.18939074411462
JY1SAT (JO-97)          
1 43803U 18099AX  26158.63416913  .00016906  00000+0  52630-3 0  9990
2 43803  97.4132 221.4372 0004236 310.3940  49.6932 15.33351516412162
UWE-4                   
1 43880U 18111E   26158.76428060  .00033394  00000+0  69481-3 0  9992
2 43880  97.5856  86.7246 0007278  18.3165 341.8344 15.45534783409326
TIANYAN 01              
1 44881U 19093C   26158.82287615  .00001083  00000+0  12828-3 0  9993
2 44881  97.7526 231.2829 0014864 114.7858 245.4906 14.86504286350021
RS-44 & BREEZE-KM R/B   
1 44909U 19096E   26158.77976553  .00000013  00000+0  21197-5 0  9990
2 44909  82.5218 345.9576 0217747 166.1090 194.6135 12.79748581301144
SALSAT                  
1 46495U 20068K   26158.72612110  .00008408  00000+0  29512-3 0  9997
2 46495  97.8853 161.2159 0008931 346.1637  13.9356 15.29663376313918
XW-3 (CAS-9)            
1 50466U 21131B   26158.82183176  .00000499  00000+0  16772-3 0  9994
2 50466  98.4973 251.2623 0005198 118.0211 242.1504 14.41349029233767
GREENCUBE (IO-117)      
1 53109U 22080E   26152.46502029 -.00000003  00000+0  00000+0 0  9996
2 53109  70.1435 303.7143 0008869 293.3663  66.6064  6.42583280 91055
UMKA 1 (RS40S)          
1 57172U 23091G   26158.81633913  .00006201  00000+0  28448-3 0  9990
2 57172  97.5052 217.5502 0013795 146.9929 213.2170 15.20710748162582
CUBESX-HSE 3 (RS42S)    
1 57178U 23091N   26158.82812995  .00013271  00000+0  44477-3 0  9991
2 57178  97.5092 224.2987 0012117 123.5009 236.7392 15.30978748162999
MONITOR-3 (RS58S)       
1 57180U 23091Q   26158.70111167  .00011222  00000+0  41680-3 0  9991
2 57180  97.5085 222.0790 0013013 130.1033 230.1349 15.27651376162844
MONITOR-4 (RS57S)       
1 57182U 23091S   26158.81171493  .00010147  00000+0  37611-3 0  9997
2 57182  97.5077 222.1609 0012970 130.0924 230.1454 15.27747114162861
MONITOR-2 (RS39S)       
1 57184U 23091U   26158.82590078  .00005539  00000+0  26884-3 0  9993
2 57184  97.5075 217.1699 0012335 139.8494 220.3654 15.18824376162531
SVYATOBOR 1 (RS60S)     
1 57187U 23091X   26158.81682433  .00009397  00000+0  36265-3 0  9992
2 57187  97.5090 222.5831 0010828 122.4625 237.7661 15.26456283162883
VIZARD-METEO (RS38S)    
1 57189U 23091Z   26158.76581647  .00018022  00000+0  51981-3 0  9990
2 57189  97.5091 228.0646 0008707 105.6528 254.5677 15.35727280163242
POLYTECH-UNIVERSE 3 (R*)
1 57191U 23091AB  26158.85433721  .00005641  00000+0  27176-3 0  9994
2 57191  97.5049 216.7027 0016249 156.9057 203.2911 15.19023714162537
UTMN 2 (RS27S)          
1 57203U 23091AP  26158.85085067  .00013442  00000+0  43918-3 0  9994
2 57203  97.5088 225.9441 0009486 111.4971 248.7283 15.31822624163114
