OBJECT_NAME,OBJECT_ID,EPOCH,MEAN_MOTION,ECCENTRICITY,INCLINATION,RA_OF_ASC_NODE,ARG_OF_PERICENTER,MEAN_ANOMALY,EPHEMERIS_TYPE,CLASSIFICATION_TYPE,NORAD_CAT_ID,ELEMENT_SET_NO,REV_AT_EPOCH,BSTAR,MEAN_MOTION_DOT,MEAN_MOTION_DDOT
CUBEBUG-2 (LO-74),2013-066AA,2026-06-07T18:02:43.454112,14.93689124,.005931,97.8907,107.6906,59.6684,301.0383,0,U,39440,999,67558,.49259E-3,.5333E-4,0
FUNCUBE-1 (AO-73),2013-066AE,2026-06-07T10:39:41.135904,15.09375076,.0034678,97.8276,129.6877,234.9588,124.8385,0,U,39444,999,67819,.42956E-3,.689E-4,0
UWE-3,2013-066AG,2026-06-06T15:42:38.626272,14.96941234,.00490307,97.8693,113.6587,356.7161,3.3731,0,U,39446,999,67600,.43621535E-3,.5074E-4,0
UNISAT-6,2014-033C,2026-06-07T09:13:08.162400,14.88194150,.0046464,97.7873,311.2702,100.6516,259.9939,0,U,40012,999,64470,.40442E-3,.3749E-4,0
DUCHIFAT-1,2014-033M,2026-06-07T16:16:55.996032,15.62727135,.0004587,98.0456,216.5179,131.8907,228.2741,0,U,40021,999,65426,.1084E-2,.98159E-3,0
QB50P1,2014-033R,2026-06-07T12:39:20.132640,15.18113251,.0007105,98.0971,168.9970,254.5294,105.5153,0,U,40025,999,65156,.43186E-3,.8742E-4,0
LILACSAT-2,2015-049K,2026-06-07T20:30:37.757088,15.51138001,.0005273,97.4658,195.3431,290.5121,69.5565,0,U,40908,999,59430,.32149E-3,.18684E-3,0
FOX-1A (AO-85),2015-058D,2026-06-07T18:15:28.569312,14.90923768,.0129935,64.7762,308.2774,60.2802,301.1167,0,U,40967,999,11216,.28859E-3,.3179E-4,0
CAS-2T & KS-1Q,2016-066G,2026-06-07T18:02:27.906432,14.44663945,.034243,98.3822,234.5955,158.0287,203.5998,0,U,41847,999,50343,.2752E-3,.1911E-4,0
RADFXSAT (FOX-1B),2017-073E,2026-06-07T14:47:20.143104,15.12560328,.0150977,97.4720,26.0272,2.4483,357.7452,0,U,43017,999,46394,.42838E-3,.9816E-4,0
DIWATA-2B,2018-084H,2026-06-07T20:00:10.099008,15.00409522,.0012,98.1170,354.6367,200.8942,159.1792,0,U,43678,999,41481,.27042E-3,.3338E-4,0
ES'HAIL 2,2018-090A,2026-06-07T16:58:22.186272,1.00273798,.0001915,0.0135,47.6791,65.0280,63.7974,0,U,43700,999,2758,0,.159E-5,0
FOX-1CLIFF (AO-95),2018-099N,2026-06-07T16:54:31.906080,15.26512239,.0009051,97.4384,218.9879,31.2567,328.9208,0,U,43770,999,41177,.46571E-3,.12109E-3,0
ITASAT,2018-099AE,2026-06-07T16:01:07.516704,15.18939074,.0013145,97.4031,210.3699,33.2018,327.0039,0,U,43786,999,41146,.35627E-3,.7393E-4,0
JY1SAT (JO-97),2018-099AX,2026-06-07T15:13:12.212832,15.33351516,.0004236,97.4132,221.4372,310.3940,49.6932,0,U,43803,999,41216,.5263E-3,.16906E-3,0
UWE-4,2018-111E,2026-06-07T18:20:33.843840,15.45534783,.0007278,97.5856,86.7246,18.3165,341.8344,0,U,43880,999,40932,.69481E-3,.33394E-3,0
TIANYAN 01,2019-093C,2026-06-07T19:44:56.499360,14.86504286,.0014864,97.7526,231.2829,114.7858,245.4906,0,U,44881,999,35002,.12828E-3,.1083E-4,0
RS-44 & BREEZE-KM R/B,2019-096E,2026-06-07T18:42:51.741792,12.79748581,.0217747,82.5218,345.9576,166.1090,194.6135,0,U,44909,999,30114,.21197E-5,.13E-6,0
SALSAT,2020-068K,2026-06-07T17:25:36.863040,15.29663376,.0008931,97.8853,161.2159,346.1637,13.9356,0,U,46495,999,31391,.29512E-3,.8408E-4,0
XW-3 (CAS-9),2021-131B,2026-06-07T19:43:26.264064,14.41349029,.0005198,98.4973,251.2623,118.0211,242.1504,0,U,50466,999,23376,.16772E-3,.499E-5,0
GREENCUBE (IO-117),2022-080E,2026-06-01T11:09:37.753056,6.42583280,.00088692,70.1435,303.7143,293.3663,66.6064,0,U,53109,999,9105,0,-.3E-7,0
UMKA 1 (RS40S),2023-091G,2026-06-07T19:35:31.700832,15.20710748,.0013795,97.5052,217.5502,146.9929,213.2170,0,U,57172,999,16258,.28448E-3,.6201E-4,0
CUBESX-HSE 3 (RS42S),2023-091N,2026-06-07T19:52:30.427680,15.30978748,.0012117,97.5092,224.2987,123.5009,236.7392,0,U,57178,999,16299,.44477E-3,.13271E-3,0
MONITOR-3 (RS58S),2023-091Q,2026-06-07T16:49:36.048288,15.27651376,.0013013,97.5085,222.0790,130.1033,230.1349,0,U,57180,999,16284,.4168E-3,.11222E-3,0
MONITOR-4 (RS57S),2023-091S,2026-06-07T19:28:52.169952,15.27747114,.001297,97.5077,222.1609,130.0924,230.1454,0,U,57182,999,16286,.37611E-3,.10147E-3,0
MONITOR-2 (RS39S),2023-091U,2026-06-07T19:49:17.827392,15.18824376,.0012335,97.5075,217.1699,139.8494,220.3654,0,U,57184,999,16253,.26884E-3,.5539E-4,0
SVYATOBOR 1 (RS60S),2023-091X,2026-06-07T19:36:13.622112,15.26456283,.0010828,97.5090,222.5831,122.4625,237.7661,0,U,57187,999,16288,.36265E-3,.9397E-4,0
VIZARD-METEO (RS38S),2023-091Z,2026-06-07T18:22:46.543008,15.35727280,.0008707,97.5091,228.0646,105.6528,254.5677,0,U,57189,999,16324,.51981E-3,.18022E-3,0
POLYTECH-UNIVERSE 3 (RS46S),2023-091AB,2026-06-07T20:30:14.734944,15.19023714,.0016249,97.5049,216.7027,156.9057,203.2911,0,U,57191,999,16253,.27176E-3,.5641E-4,0
UTMN 2 (RS27S),2023-091AP,2026-06-07T20:25:13.497888,15.31822624,.0009486,97.5088,225.9441,111.4971,248.7283,0,U,57203,999,16311,.43918E-3,.13442E-3,0
